IRIDIUM 8 [+]           
1 24792U 97020A   16049.41517920  .00000385  00000-0  13057-3 0  9996
2 24792  86.4014 161.3464 0002058  99.3611 260.7817 14.34221282983716
IRIDIUM 7 [+]           
1 24793U 97020B   16049.40882351  .00000379  00000-0  12846-3 0  9997
2 24793  86.4019 161.6051 0002053 100.2845 259.8582 14.34212325983719
IRIDIUM 6 [+]           
1 24794U 97020C   16049.40238732  .00000378  00000-0  12782-3 0  9994
2 24794  86.4017 161.5496 0002101  99.4951 260.6483 14.34212177983716
IRIDIUM 5 [+]           
1 24795U 97020D   16049.46591465  .00000419  00000-0  14238-3 0  9990
2 24795  86.4018 161.5668 0002181  96.2545 263.8900 14.34220898983809
IRIDIUM 4 [-]           
1 24796U 97020E   16049.41606769  .00000310  00000-0  10186-3 0  9998
2 24796  86.4010 160.8177 0002040  97.5214 330.4191 14.35049980983782
IRIDIUM 914 [-]         
1 24836U 97030A   16049.42416215  .00000324  00000-0  99224-4 0  9996
2 24836  86.3984 178.8455 0000615 138.4806 221.6439 14.38650824979242
IRIDIUM 12 [+]          
1 24837U 97030B   16049.49497618  .00000308  00000-0  10277-3 0  9992
2 24837  86.3991 192.6794 0002010  95.1418 331.9451 14.34221846977476
IRIDIUM 10 [+]          
1 24839U 97030D   16049.54792380  .00000298  00000-0  99158-4 0  9998
2 24839  86.3990 192.6400 0002001  96.2585 309.5618 14.34223874977499
IRIDIUM 13 [+]          
1 24840U 97030E   16049.48834304  .00000312  00000-0  10431-3 0  9999
2 24840  86.3992 192.7947 0001967  90.9651 269.1770 14.34221730977472
IRIDIUM 16 [-]          
1 24841U 97030F   16049.43709661  .00000369  00000-0  11897-3 0  9991
2 24841  86.4069 192.9859 0004167  81.5572 278.6098 14.36597402977984
IRIDIUM 911 [-]         
1 24842U 97030G   16049.47439226  .00000414  00000-0  11347-3 0  9994
2 24842  86.4495 194.0373 0012537 258.7582 101.2211 14.44818118982951
IRIDIUM 15 [+]          
1 24869U 97034A   16049.56132029  .00000117  00000-0  34811-4 0  9990
2 24869  86.3948 224.3541 0002028  91.8624 332.4994 14.34218938974458
IRIDIUM 17 [-]          
1 24870U 97034B   16049.57157343  .00000321  00000-0  10465-3 0  9994
2 24870  86.3955 223.1656 0002355  55.6263 304.5156 14.35639221974635
IRIDIUM 920 [-]         
1 24871U 97034C   16049.49760787  .00000362  00000-0  11010-3 0  9990
2 24871  86.3983 210.5561 0013328 129.0801 231.1585 14.39372625976626
IRIDIUM 18 [+]          
1 24872U 97034D   16049.58059062  .00000103  00000-0  29801-4 0  9999
2 24872  86.3950 224.5742 0002152  93.5407 266.6035 14.34218838974459
IRIDIUM 921 [-]         
1 24873U 97034E   16049.46722007  .00004329  00000-0  26406-3 0  9994
2 24873  86.3955 294.8423 0008533  19.2062 340.9495 15.10047659 14910
IRIDIUM 26 [-]          
1 24903U 97043A   16049.55655516  .00000247  00000-0  79639-4 0  9990
2 24903  86.3944  97.7285 0002416  94.7257  16.8209 14.35162743968464
IRIDIUM 25 [+]          
1 24904U 97043B   16049.59862457  .00000255  00000-0  83880-4 0  9991
2 24904  86.3941  98.0523 0002370  96.6370 263.5096 14.34219734968363
IRIDIUM 46 [+]          
1 24905U 97043C   16049.54154025  .00000249  00000-0  81785-4 0  9997
2 24905  86.3948  98.5857 0002289  97.6208 262.5248 14.34219783968368
IRIDIUM 23 [S]          
1 24906U 97043D   16049.55680447  .00000238  00000-0  77983-4 0  9994
2 24906  86.3953  98.0441 0002299  99.1249  12.5832 14.34221530968378
IRIDIUM 22 [+]          
1 24907U 97043E   16049.57959387  .00000257  00000-0  84746-4 0  9995
2 24907  86.3952  98.6730 0002271  97.0214 263.1240 14.34220095968365
DUMMY MASS 1 [-]        
1 24925U 97048A   16049.11263741  .00000237  00000-0  24544-4 0  9990
2 24925  86.3327 267.0061 0005715 335.4284  24.6666 14.85049592999590
DUMMY MASS 2 [-]        
1 24926U 97048B   16049.14292029  .00000249  00000-0  26025-4 0  9994
2 24926  86.3326 268.0286 0006758 341.2797  18.8177 14.84818482999450
IRIDIUM 29 [-]          
1 24944U 97051A   16049.27968462  .00000286  00000-0  94410-4 0  9997
2 24944  86.3989 129.7441 0001913  98.3478 261.7935 14.34551703964903
IRIDIUM 32 [+]          
1 24945U 97051B   16049.25954439  .00000376  00000-0  12720-3 0  9998
2 24945  86.3987 129.8593 0002187 100.8119 259.3323 14.34217986964913
IRIDIUM 33 [-]          
1 24946U 97051C   16049.54325817  .00000237  00000-0  78637-4 0  9999
2 24946  86.3903 129.6142 0008769  35.9769 324.2015 14.33466808964605
IRIDIUM 28 [-]          
1 24948U 97051E   16049.32292775  .00000263  00000-0  84767-4 0  9993
2 24948  86.3991 129.2329 0002503  92.8164 267.3319 14.35449832965018
IRIDIUM 30 [+]          
1 24949U 97051F   16049.53227864  .00000365  00000-0  12321-3 0  9993
2 24949  86.3989 129.8337 0002231 101.8403 258.3043 14.34217395964936
IRIDIUM 31 [+]          
1 24950U 97051G   16049.59570195  .00000339  00000-0  11385-3 0  9999
2 24950  86.3988 129.8077 0002051  97.0424 263.1005 14.34218012964958
IRIDIUM 19 [+]          
1 24965U 97056A   16049.37077970  .00000402  00000-0  13634-3 0  9999
2 24965  86.4014 161.3725 0002072  98.4038 261.7393 14.34221653963065
IRIDIUM 35 [+]          
1 24966U 97056B   16049.45323102  .00000409  00000-0  13907-3 0  9990
2 24966  86.4014 161.3357 0002117  99.4502 260.6933 14.34222014963053
IRIDIUM 36 [-]          
1 24967U 97056C   16049.34491912  .00000266  00000-0  85683-4 0  9996
2 24967  86.4025 160.8175 0001951  94.5642 265.5777 14.35498218963304
IRIDIUM 37 [+]          
1 24968U 97056D   16049.35809054  .00000401  00000-0  13619-3 0  9998
2 24968  86.4016 161.5474 0002062  98.5432 261.5997 14.34222231963040
IRIDIUM 34 [+]          
1 24969U 97056E   16049.44688666  .00000404  00000-0  13708-3 0  9995
2 24969  86.4016 161.4476 0002070  96.9238 263.2194 14.34222058963053
IRIDIUM 43 [+]          
1 25039U 97069A   16049.57424421 -.00000023  00000-0 -15383-4 0  9990
2 25039  86.3945 224.4942 0001878  85.5807 274.5603 14.34215474956855
IRIDIUM 41 [+]          
1 25040U 97069B   16049.58060532  .00000089  00000-0  24749-4 0  9998
2 25040  86.3950 224.4622 0002202  94.1602 331.5025 14.34218936956857
IRIDIUM 40 [+]          
1 25041U 97069C   16049.52348523 -.00000048  00000-0 -24048-4 0  9991
2 25041  86.3938 224.7069 0001353  58.1566 301.9761 14.34214937956863
IRIDIUM 39 [+]          
1 25042U 97069D   16049.52987341  .00000094  00000-0  26456-4 0  9993
2 25042  86.3951 224.7562 0002210  96.7747 263.3701 14.34217970956842
IRIDIUM 38 [-]          
1 25043U 97069E   16049.50630007  .00000317  00000-0  10263-3 0  9992
2 25043  86.3953 222.2543 0003274  84.1080 276.0490 14.35918429957170
IRIDIUM 42 [-]          
1 25077U 97077A   16049.53409633  .00000322  00000-0  10730-3 0  9995
2 25077  86.3953 224.5055 0002228  88.5313 271.6138 14.34456158952715
IRIDIUM 44 [-]          
1 25078U 97077B   16049.50760334  .00000326  00000-0  10123-3 0  9991
2 25078  86.3964 215.2880 0003603  76.3161 283.8438 14.37992871953972
IRIDIUM 45 [+]          
1 25104U 97082A   16049.58936144  .00000364  00000-0  12275-3 0  9991
2 25104  86.3986 129.8549 0003539  92.9961 267.1640 14.34218016950918
IRIDIUM 24 [-]          
1 25105U 97082B   16049.50358129  .00000298  00000-0  88553-4 0  9994
2 25105  86.3887  80.1304 0013215 133.8511 226.3782 14.39734683953112
IRIDIUM 47 [+]          
1 25106U 97082C   16049.54787380  .00000263  00000-0  86908-4 0  9998
2 25106  86.3937  97.9603 0002291  99.2955 260.8500 14.34222932950893
IRIDIUM 49 [+]          
1 25108U 97082E   16049.58206852  .00000251  00000-0  82623-4 0  9991
2 25108  86.3941  98.0361 0002313  97.1238  14.0170 14.34218338950919
IRIDIUM 52 [+]          
1 25169U 98010A   16049.45032973  .00000298  00000-0  99346-4 0  9998
2 25169  86.3995 192.9707 0002011  94.3910 265.7515 14.34221675942304
IRIDIUM 56 [+]          
1 25170U 98010B   16049.51373055  .00000379  00000-0  12809-3 0  9994
2 25170  86.3990 193.0436 0002346  97.0026 263.1437 14.34225451942290
IRIDIUM 54 [+]          
1 25171U 98010C   16049.54540923  .00000285  00000-0  94731-4 0  9999
2 25171  86.3996 192.9493 0002004  94.3103 265.8322 14.34223886942466
IRIDIUM 50 [+]          
1 25172U 98010D   16049.44886848  .00000304  00000-0  10132-3 0  9992
2 25172  86.3995 192.9486 0001946  96.2325 322.0819 14.34221866942282
IRIDIUM 53 [+]          
1 25173U 98010E   16049.45663460  .00000299  00000-0  99737-4 0  9999
2 25173  86.3995 192.9512 0001999  93.7929 266.3495 14.34221469942293
IRIDIUM 51 [S]          
1 25262U 98018A   16049.40247948  .00000458  00000-0  15650-3 0  9998
2 25262  86.4030 161.6402 0002006 103.0787 257.0633 14.34221672941679
IRIDIUM 61 [+]          
1 25263U 98018B   16049.36443407  .00000381  00000-0  12895-3 0  9995
2 25263  86.4016 161.5112 0002111  99.0897 261.0538 14.34221675937378
IRIDIUM 55 [+]          
1 25272U 98019A   16049.57667503  .00000014  00000-0 -20777-5 0  9998
2 25272  86.3986 129.6385 0002191  99.7736 260.3707 14.34217503936607
IRIDIUM 57 [+]          
1 25273U 98019B   16049.27220812  .00000371  00000-0  12523-3 0  9997
2 25273  86.3991 130.0515 0002221  99.4260 260.7187 14.34224729936567
IRIDIUM 58 [+]          
1 25274U 98019C   16049.27854828  .00000367  00000-0  12393-3 0  9998
2 25274  86.3994 130.2322 0002253 101.4128 258.7321 14.34224663936565
IRIDIUM 59 [+]          
1 25275U 98019D   16049.28490462  .00000362  00000-0  12233-3 0  9998
2 25275  86.3989 130.1089 0002085 101.2320 258.9110 14.34219179936568
IRIDIUM 60 [+]          
1 25276U 98019E   16049.29125709  .00000375  00000-0  12679-3 0  9997
2 25276  86.3984 129.7448 0002204  98.6469 261.4976 14.34218072936563
IRIDIUM 62 [+]          
1 25285U 98021A   16049.53174431  .00000093  00000-0  26037-4 0  9994
2 25285  86.3989  66.5117 0005477  51.9994 308.1695 14.34212444935551
IRIDIUM 63 [-]          
1 25286U 98021B   16049.55136707  .00000287  00000-0  94932-4 0  9995
2 25286  86.3949  66.8924 0001992  94.1132  18.2186 14.34561544935561
IRIDIUM 64 [+]          
1 25287U 98021C   16049.54441358  .00000072  00000-0  18640-4 0  9990
2 25287  86.3928  66.5579 0002301  87.8118 272.3341 14.34215380935537
